{
  "type": "FeatureCollection",
  "features": [
    {
      "type": "Feature",
      "properties": {
        "norad_id": 26766,
        "name": "INTELSAT 10 (IS-10)",
        "group": "intelsat",
        "lat": -7.143086293071545,
        "lon": -63.22486033059608,
        "alt_km": 36092.59950423024,
        "timestamp": "2025-12-07T03:52:32.138033+00:00",
        "meta_object_name": "INTELSAT 10 (IS-10)",
        "meta_object_id": "2001-019A",
        "meta_epoch": "2025-12-06T11:29:51.700704",
        "meta_mean_motion": 0.99078798,
        "meta_eccentricity": 0.00078511,
        "meta_inclination": 8.6144,
        "meta_ra_of_asc_node": 61.2183,
        "meta_arg_of_pericenter": 220.2225,
        "meta_mean_anomaly": 132.1998,
        "meta_ephemeris_type": 0,
        "meta_classification_type": "U",
        "meta_norad_cat_id": 26766,
        "meta_element_set_no": 999,
        "meta_rev_at_epoch": 4366,
        "meta_bstar": 0,
        "meta_mean_motion_dot": -2.37e-06,
        "meta_mean_motion_ddot": 0,
        "tle_line1": "1 26766U 01019A   25340.47907061 -.00000237  00000+0  00000+0 0  9997",
        "tle_line2": "2 26766   8.6144  61.2183 0007851 220.2225 132.1998  0.99078798 43668"
      },
      "geometry": {
        "type": "Point",
        "coordinates": [
          -63.22486033059608,
          -7.143086293071545
        ]
      }
    },
    {
      "type": "Feature",
      "properties": {
        "norad_id": 26900,
        "name": "INTELSAT 902 (IS-902)",
        "group": "intelsat",
        "lat": 1.0025691063071933,
        "lon": 84.09900934981286,
        "alt_km": 35804.622547815874,
        "timestamp": "2025-12-07T03:52:32.138061+00:00",
        "meta_object_name": "INTELSAT 902 (IS-902)",
        "meta_object_id": "2001-039A",
        "meta_epoch": "2025-12-01T16:59:59.311968",
        "meta_mean_motion": 1.00270327,
        "meta_eccentricity": 0.00043097,
        "meta_inclination": 5.6187,
        "meta_ra_of_asc_node": 74.2002,
        "meta_arg_of_pericenter": 175.119,
        "meta_mean_anomaly": 26.3816,
        "meta_ephemeris_type": 0,
        "meta_classification_type": "U",
        "meta_norad_cat_id": 26900,
        "meta_element_set_no": 999,
        "meta_rev_at_epoch": 8871,
        "meta_bstar": 0,
        "meta_mean_motion_dot": -2.63e-06,
        "meta_mean_motion_ddot": 0,
        "tle_line1": "1 26900U 01039A   25335.70832537 -.00000263  00000+0  00000+0 0  9993",
        "tle_line2": "2 26900   5.6187  74.2002 0004309 175.1190  26.3816  1.00270327 88713"
      },
      "geometry": {
        "type": "Point",
        "coordinates": [
          84.09900934981286,
          1.0025691063071933
        ]
      }
    },
    {
      "type": "Feature",
      "properties": {
        "norad_id": 27380,
        "name": "INTELSAT 904 (IS-904)",
        "group": "intelsat",
        "lat": 3.3635846881216733,
        "lon": 102.63399377946773,
        "alt_km": 35793.883705779546,
        "timestamp": "2025-12-07T03:52:32.138078+00:00",
        "meta_object_name": "INTELSAT 904 (IS-904)",
        "meta_object_id": "2002-007A",
        "meta_epoch": "2025-12-06T11:48:15.274944",
        "meta_mean_motion": 1.00268726,
        "meta_eccentricity": 0.00017301,
        "meta_inclination": 6.4388,
        "meta_ra_of_asc_node": 71.5029,
        "meta_arg_of_pericenter": 210.4172,
        "meta_mean_anomaly": 299.1554,
        "meta_ephemeris_type": 0,
        "meta_classification_type": "U",
        "meta_norad_cat_id": 27380,
        "meta_element_set_no": 999,
        "meta_rev_at_epoch": 4983,
        "meta_bstar": 0,
        "meta_mean_motion_dot": -2.22e-06,
        "meta_mean_motion_ddot": 0,
        "tle_line1": "1 27380U 02007A   25340.49184346 -.00000222  00000+0  00000+0 0  9997",
        "tle_line2": "2 27380   6.4388  71.5029 0001730 210.4172 299.1554  1.00268726 49834"
      },
      "geometry": {
        "type": "Point",
        "coordinates": [
          102.63399377946773,
          3.3635846881216733
        ]
      }
    },
    {
      "type": "Feature",
      "properties": {
        "norad_id": 27426,
        "name": "DIRECTV 5 (TEMPO 1)",
        "group": "intelsat",
        "lat": -3.509101055705742,
        "lon": 24.321402299173275,
        "alt_km": 35792.6987025266,
        "timestamp": "2025-12-07T03:52:32.138093+00:00",
        "meta_object_name": "DIRECTV 5 (TEMPO 1)",
        "meta_object_id": "2002-023A",
        "meta_epoch": "2025-12-06T10:50:51.492768",
        "meta_mean_motion": 1.00271507,
        "meta_eccentricity": 0.00039111,
        "meta_inclination": 4.3854,
        "meta_ra_of_asc_node": 77.7251,
        "meta_arg_of_pericenter": 195.0689,
        "meta_mean_anomaly": 215.2902,
        "meta_ephemeris_type": 0,
        "meta_classification_type": "U",
        "meta_norad_cat_id": 27426,
        "meta_element_set_no": 999,
        "meta_rev_at_epoch": 8619,
        "meta_bstar": 0,
        "meta_mean_motion_dot": -5.2e-07,
        "meta_mean_motion_ddot": 0,
        "tle_line1": "1 27426U 02023A   25340.45198487 -.00000052  00000+0  00000+0 0  9994",
        "tle_line2": "2 27426   4.3854  77.7251 0003911 195.0689 215.2902  1.00271507 86196"
      },
      "geometry": {
        "type": "Point",
        "coordinates": [
          24.321402299173275,
          -3.509101055705742
        ]
      }
    },
    {
      "type": "Feature",
      "properties": {
        "norad_id": 27438,
        "name": "INTELSAT 905 (IS-905)",
        "group": "intelsat",
        "lat": -6.050198698102317,
        "lon": -2.704095093316701,
        "alt_km": 35787.42228221034,
        "timestamp": "2025-12-07T03:52:32.138107+00:00",
        "meta_object_name": "INTELSAT 905 (IS-905)",
        "meta_object_id": "2002-027A",
        "meta_epoch": "2025-12-03T09:40:44.149728",
        "meta_mean_motion": 1.00273288,
        "meta_eccentricity": 0.00031296,
        "meta_inclination": 6.2606,
        "meta_ra_of_asc_node": 72.1621,
        "meta_arg_of_pericenter": 189.1417,
        "meta_mean_anomaly": 179.1858,
        "meta_ephemeris_type": 0,
        "meta_classification_type": "U",
        "meta_norad_cat_id": 27438,
        "meta_element_set_no": 999,
        "meta_rev_at_epoch": 4940,
        "meta_bstar": 0,
        "meta_mean_motion_dot": 1.09e-06,
        "meta_mean_motion_ddot": 0,
        "tle_line1": "1 27438U 02027A   25337.40328877  .00000109  00000+0  00000+0 0  9992",
        "tle_line2": "2 27438   6.2606  72.1621 0003129 189.1417 179.1858  1.00273288 49408"
      },
      "geometry": {
        "type": "Point",
        "coordinates": [
          -2.704095093316701,
          -6.050198698102317
        ]
      }
    },
    {
      "type": "Feature",
      "properties": {
        "norad_id": 27445,
        "name": "GALAXY 3C (G-3C)",
        "group": "intelsat",
        "lat": -2.1153616422584034,
        "lon": 39.49258270575874,
        "alt_km": 35790.800244737235,
        "timestamp": "2025-12-07T03:52:32.138121+00:00",
        "meta_object_name": "GALAXY 3C (G-3C)",
        "meta_object_id": "2002-030A",
        "meta_epoch": "2025-12-06T10:58:45.928128",
        "meta_mean_motion": 1.00270555,
        "meta_eccentricity": 0.00012064,
        "meta_inclination": 3.2479,
        "meta_ra_of_asc_node": 80.568,
        "meta_arg_of_pericenter": 102.1623,
        "meta_mean_anomaly": 322.5966,
        "meta_ephemeris_type": 0,
        "meta_classification_type": "U",
        "meta_norad_cat_id": 27445,
        "meta_element_set_no": 999,
        "meta_rev_at_epoch": 4456,
        "meta_bstar": 0,
        "meta_mean_motion_dot": -1.47e-06,
        "meta_mean_motion_ddot": 0,
        "tle_line1": "1 27445U 02030A   25340.45747602 -.00000147  00000+0  00000+0 0  9997",
        "tle_line2": "2 27445   3.2479  80.5680 0001206 102.1623 322.5966  1.00270555 44567"
      },
      "geometry": {
        "type": "Point",
        "coordinates": [
          39.49258270575874,
          -2.1153616422584034
        ]
      }
    },
    {
      "type": "Feature",
      "properties": {
        "norad_id": 27513,
        "name": "INTELSAT 906 (IS-906)",
        "group": "intelsat",
        "lat": 4.4380643744294295,
        "lon": -161.48819137195724,
        "alt_km": 35774.87392407887,
        "timestamp": "2025-12-07T03:52:32.138133+00:00",
        "meta_object_name": "INTELSAT 906 (IS-906)",
        "meta_object_id": "2002-041A",
        "meta_epoch": "2025-12-06T08:50:02.344416",
        "meta_mean_motion": 1.00270373,
        "meta_eccentricity": 0.00060363,
        "meta_inclination": 5.3127,
        "meta_ra_of_asc_node": 75.3075,
        "meta_arg_of_pericenter": 187.7214,
        "meta_mean_anomaly": 9.0301,
        "meta_ephemeris_type": 0,
        "meta_classification_type": "U",
        "meta_norad_cat_id": 27513,
        "meta_element_set_no": 999,
        "meta_rev_at_epoch": 8509,
        "meta_bstar": 0,
        "meta_mean_motion_dot": 1.8e-07,
        "meta_mean_motion_ddot": 0,
        "tle_line1": "1 27513U 02041A   25340.36808269  .00000018  00000+0  00000+0 0  9998",
        "tle_line2": "2 27513   5.3127  75.3075 0006036 187.7214   9.0301  1.00270373 85098"
      },
      "geometry": {
        "type": "Point",
        "coordinates": [
          -161.48819137195724,
          4.4380643744294295
        ]
      }
    }
  ]
}